{"spkid": "50742001", "covariance": {"labels": ["e", "q", "tp", "node", "peri", "i"], "elements": [{"sigma": 5.51304672969266e-07, "name": "e", "units": null, "title": "eccentricity", "value": ".1783229762344262", "label": "e"}, {"name": "q", "sigma": 5.12744376955618e-07, "units": "au", "value": ".7664314065523559", "title": "perihelion distance", "label": "q"}, {"label": "tp", "sigma": 7.98985558846716e-05, "name": "tp", "value": "2459820.240056083998", "title": "time of perihelion passage", "units": "TDB"}, {"label": "node", "name": "om", "sigma": 0.000210634306287501, "units": "deg", "value": "346.2331221643255", "title": "longitude of the ascending node"}, {"label": "peri", "title": "argument of perihelion", "value": "270.187882199055", "units": "deg", "name": "w", "sigma": 0.00019671342907519}, {"title": "inclination", "value": ".4856521718306475", "units": "deg", "sigma": 3.02336999405619e-06, "name": "i", "label": "i"}], "data": [["3.039368424377489E-13", "-2.826783298318408E-13", "-4.393519070772897E-11", "-5.326497138013416E-11", "3.798109680374626E-11", "1.227199229419938E-12"], ["-2.826783298318408E-13", "2.629067960996049E-13", "4.08632884878718E-11", "4.955667422078508E-11", "-3.534106910236922E-11", "-1.141470784199411E-12"], ["-4.393519070772897E-11", "4.08632884878718E-11", "6.383779232455997E-9", "8.333239910616548E-9", "-6.09620424801463E-9", "-1.813327386923532E-10"], ["-5.326497138013416E-11", "4.955667422078508E-11", "8.333239910616548E-9", "4.436681098521669E-8", "-4.113507997867233E-8", "-5.68854512241701E-10"], ["3.798109680374626E-11", "-3.534106910236922E-11", "-6.09620424801463E-9", "-4.113507997867233E-8", "3.869617317851997E-8", "5.036993965443143E-10"], ["1.227199229419938E-12", "-1.141470784199411E-12", "-1.813327386923532E-10", "-5.68854512241701E-10", "5.036993965443143E-10", "9.14076612095933E-12"]], "epoch": "2459835.5"}, "elements": [{"label": "e", "sigma": "5.6116E-7", "name": "e", "units": null, "value": ".1787040726096759", "title": "eccentricity"}, {"label": "a", "units": "au", "value": ".9341580820957298", "title": "semi-major axis", "name": "a", "sigma": "1.2091E-8"}, {"sigma": "5.1429E-7", "name": "q", "value": ".767220228363979", "title": "perihelion distance", "units": "au", "label": "q"}, {"name": "i", "sigma": "2.9759E-6", "units": "deg", "value": ".485150793580454", "title": "inclination; angle with respect to x-y ecliptic plane", "label": "i"}, {"label": "node", "title": "longitude of the ascending node", "value": "345.8246055804872", "units": "deg", "sigma": ".00020854", "name": "om"}, {"label": "peri", "name": "w", "sigma": ".00019695", "value": "270.3215220647603", "title": "argument of perihelion", "units": "deg"}, {"units": "deg", "title": "mean anomaly", "value": "69.11104422455676", "sigma": "6.9106E-5", "name": "ma", "label": "M"}, {"units": "TDB", "value": "2461137.189762258863", "title": "time of perihelion passage", "sigma": "6.4533E-5", "name": "tp", "label": "tp"}, {"sigma": "6.4029E-6", "name": "per", "units": "d", "title": "sidereal orbital period", "value": "329.7835511319185", "label": "period"}, {"label": "n", "sigma": "2.1194E-8", "name": "n", "units": "deg/d", "title": "mean motion", "value": "1.091625093987767"}, {"label": "Q", "units": "au", "value": "1.101095935827481", "title": "aphelion distance", "name": "ad", "sigma": "1.4252E-8"}], "epoch": "2461200.5"}